start=new Date('2022-05-29T00:00:00.000Z').valueOf();
sats=[{"OBJECT_TYPE":"PAYLOAD","PERIAPSIS":"546.203","SITE":"AFETR","TLE_LINE2":"2 47181  53.0570   0.5292 0001460  68.1736 291.9408 15.06399724 83980","COUNTRY_CODE":"US","EPHEMERIS_TYPE":"0","APOAPSIS":"548.226","CENTER_NAME":"EARTH","CLASSIFICATION_TYPE":"U","NORAD_CAT_ID":"47181","BSTAR":"0.00017781000000","MEAN_ELEMENT_THEORY":"SGP4","ELEMENT_SET_NO":"999","EPOCH":"2022-05-28T20:01:49.395936","TLE_LINE1":"1 47181U 20088BM  22148.83459949  .00002368  00000-0  17781-3 0  9993","RA_OF_ASC_NODE":"0.5292","MEAN_MOTION_DDOT":"0.0000000000000","OBJECT_NAME":"STARLINK-1927","ECCENTRICITY":"0.00014600","MEAN_MOTION":"15.06399724","LAUNCH_DATE":"2020-11-25","PERIOD":"95.592","DECAY_DATE":null,"MEAN_MOTION_DOT":"0.00002368","REV_AT_EPOCH":"8398","RCS_SIZE":"LARGE","REF_FRAME":"TEME","FILE":"3469840","ARG_OF_PERICENTER":"68.1736","GP_ID":"204803640","SEMIMAJOR_AXIS":"6925.349","OBJECT_ID":"2020-088BM","INCLINATION":"53.0570","TIME_SYSTEM":"UTC","MEAN_ANOMALY":"291.9408"},{"APOAPSIS":"340.362","EPHEMERIS_TYPE":"0","TLE_LINE2":"2 47349  53.0340  12.6491 0001239 113.4563 246.6586 15.76795328 77368","COUNTRY_CODE":"US","SITE":"AFETR","PERIAPSIS":"338.697","OBJECT_TYPE":"PAYLOAD","EPOCH":"2022-05-28T20:18:27.172512","ELEMENT_SET_NO":"999","BSTAR":"-0.00005096600000","MEAN_ELEMENT_THEORY":"SGP4","NORAD_CAT_ID":"47349","CLASSIFICATION_TYPE":"U","CENTER_NAME":"EARTH","MEAN_MOTION":"15.76795328","OBJECT_NAME":"STARLINK-1952","MEAN_MOTION_DDOT":"0.0000000000000","ECCENTRICITY":"0.00012390","TLE_LINE1":"1 47349U 21005A   22148.84614783 -.00009014  00000-0 -50966-4 0  9999","RA_OF_ASC_NODE":"12.6491","PERIOD":"91.324","LAUNCH_DATE":"2021-01-20","RCS_SIZE":"LARGE","REF_FRAME":"TEME","REV_AT_EPOCH":"7736","MEAN_MOTION_DOT":"-0.00009014","DECAY_DATE":null,"GP_ID":"204773214","ARG_OF_PERICENTER":"113.4563","FILE":"3469481","INCLINATION":"53.0340","TIME_SYSTEM":"UTC","OBJECT_ID":"2021-005A","SEMIMAJOR_AXIS":"6717.664","MEAN_ANOMALY":"246.6586"},{"MEAN_ANOMALY":"314.4601","OBJECT_ID":"2021-005B","INCLINATION":"53.0557","TIME_SYSTEM":"UTC","SEMIMAJOR_AXIS":"6925.341","GP_ID":"204804904","ARG_OF_PERICENTER":"45.6558","FILE":"3469840","REF_FRAME":"TEME","RCS_SIZE":"LARGE","MEAN_MOTION_DOT":"0.00000178","REV_AT_EPOCH":"7489","DECAY_DATE":null,"PERIOD":"95.592","LAUNCH_DATE":"2021-01-20","MEAN_MOTION":"15.06402588","RA_OF_ASC_NODE":"141.2431","TLE_LINE1":"1 47350U 21005B   22148.67426655  .00000178  00000-0  30878-4 0  9991","ECCENTRICITY":"0.00020770","MEAN_MOTION_DDOT":"0.0000000000000","OBJECT_NAME":"STARLINK-2011","EPOCH":"2022-05-28T16:10:56.629920","ELEMENT_SET_NO":"999","MEAN_ELEMENT_THEORY":"SGP4","BSTAR":"0.00003087800000","CENTER_NAME":"EARTH","NORAD_CAT_ID":"47350","CLASSIFICATION_TYPE":"U","APOAPSIS":"548.644","EPHEMERIS_TYPE":"0","TLE_LINE2":"2 47350  53.0557 141.2431 0002077  45.6558 314.4601 15.06402588 74897","COUNTRY_CODE":"US","SITE":"AFETR","PERIAPSIS":"545.767","OBJECT_TYPE":"PAYLOAD"},{"PERIAPSIS":"546.002","OBJECT_TYPE":"PAYLOAD","SITE":"AFETR","COUNTRY_CODE":"US","TLE_LINE2":"2 47351  53.0562 101.6910 0001780  69.5123 290.6057 15.06393102 75431","EPHEMERIS_TYPE":"0","APOAPSIS":"548.467","CLASSIFICATION_TYPE":"U","NORAD_CAT_ID":"47351","CENTER_NAME":"EARTH","MEAN_ELEMENT_THEORY":"SGP4","BSTAR":"0.00001185100000","EPOCH":"2022-05-28T13:42:19.118304","ELEMENT_SET_NO":"999","MEAN_MOTION_DDOT":"0.0000000000000","OBJECT_NAME":"STARLINK-2017","ECCENTRICITY":"0.00017800","RA_OF_ASC_NODE":"101.6910","TLE_LINE1":"1 47351U 21005C   22148.57105461 -.00000105  00000-0  11851-4 0  9991","MEAN_MOTION":"15.06393102","LAUNCH_DATE":"2021-01-20","PERIOD":"95.593","DECAY_DATE":null,"REV_AT_EPOCH":"7543","MEAN_MOTION_DOT":"-0.00000105","REF_FRAME":"TEME","RCS_SIZE":"LARGE","FILE":"3469840","ARG_OF_PERICENTER":"69.5123","GP_ID":"204803158","SEMIMAJOR_AXIS":"6925.370","INCLINATION":"53.0562","TIME_SYSTEM":"UTC","OBJECT_ID":"2021-005C","MEAN_ANOMALY":"290.6057"},{"MEAN_ANOMALY":"313.2454","INCLINATION":"53.0552","TIME_SYSTEM":"UTC","OBJECT_ID":"2021-005D","SEMIMAJOR_AXIS":"6925.339","GP_ID":"204766154","ARG_OF_PERICENTER":"46.8719","FILE":"3469283","REF_FRAME":"TEME","RCS_SIZE":"LARGE","REV_AT_EPOCH":"7485","MEAN_MOTION_DOT":"0.00001792","DECAY_DATE":null,"PERIOD":"95.592","LAUNCH_DATE":"2021-01-20","MEAN_MOTION":"15.06403175","ECCENTRICITY":"0.00022000","MEAN_MOTION_DDOT":"0.0000000000000","OBJECT_NAME":"STARLINK-2034","TLE_LINE1":"1 47352U 21005D   22148.45678222  .00001792  00000-0  13917-3 0  9995","RA_OF_ASC_NODE":"142.2243","ELEMENT_SET_NO":"999","EPOCH":"2022-05-28T10:57:45.983808","MEAN_ELEMENT_THEORY":"SGP4","BSTAR":"0.00013917000000","NORAD_CAT_ID":"47352","CLASSIFICATION_TYPE":"U","CENTER_NAME":"EARTH","APOAPSIS":"548.727","EPHEMERIS_TYPE":"0","TLE_LINE2":"2 47352  53.0552 142.2243 0002200  46.8719 313.2454 15.06403175 74858","COUNTRY_CODE":"US","SITE":"AFETR","OBJECT_TYPE":"PAYLOAD","PERIAPSIS":"545.680"},{"MEAN_ANOMALY":"316.2078","SEMIMAJOR_AXIS":"6925.356","TIME_SYSTEM":"UTC","INCLINATION":"53.0563","OBJECT_ID":"2021-005E","FILE":"3469283","ARG_OF_PERICENTER":"43.9037","GP_ID":"204765456","DECAY_DATE":null,"REV_AT_EPOCH":"7564","MEAN_MOTION_DOT":"0.00001043","REF_FRAME":"TEME","RCS_SIZE":"LARGE","LAUNCH_DATE":"2021-01-20","PERIOD":"95.592","ECCENTRICITY":"0.00015880","MEAN_MOTION_DDOT":"0.0000000000000","OBJECT_NAME":"STARLINK-2045","TLE_LINE1":"1 47353U 21005E   22148.54478494  .00001043  00000-0  88891-4 0  9998","RA_OF_ASC_NODE":"86.8267","MEAN_MOTION":"15.06397652","CLASSIFICATION_TYPE":"U","NORAD_CAT_ID":"47353","CENTER_NAME":"EARTH","MEAN_ELEMENT_THEORY":"SGP4","BSTAR":"0.00008889100000","ELEMENT_SET_NO":"999","EPOCH":"2022-05-28T13:04:29.418816","OBJECT_TYPE":"PAYLOAD","PERIAPSIS":"546.121","SITE":"AFETR","COUNTRY_CODE":"US","TLE_LINE2":"2 47353  53.0563  86.8267 0001588  43.9037 316.2078 15.06397652 75644","APOAPSIS":"548.321","EPHEMERIS_TYPE":"0"},{"MEAN_ANOMALY":"304.8840","OBJECT_ID":"2021-005F","TIME_SYSTEM":"UTC","INCLINATION":"53.0537","SEMIMAJOR_AXIS":"6925.311","GP_ID":"204804404","FILE":"3469840","ARG_OF_PERICENTER":"55.2347","RCS_SIZE":"LARGE","REF_FRAME":"TEME","DECAY_DATE":null,"MEAN_MOTION_DOT":"0.00001351","REV_AT_EPOCH":"7541","PERIOD":"95.591","LAUNCH_DATE":"2021-01-20","MEAN_MOTION":"15.06412133","TLE_LINE1":"1 47354U 21005F   22148.88941358  .00001351  00000-0  10958-3 0  9990","RA_OF_ASC_NODE":"105.2676","MEAN_MOTION_DDOT":"0.0000000000000","OBJECT_NAME":"STARLINK-2046","ECCENTRICITY":"0.00021030","BSTAR":"0.00010958000000","MEAN_ELEMENT_THEORY":"SGP4","ELEMENT_SET_NO":"999","EPOCH":"2022-05-28T21:20:45.333312","CENTER_NAME":"EARTH","CLASSIFICATION_TYPE":"U","NORAD_CAT_ID":"47354","COUNTRY_CODE":"US","TLE_LINE2":"2 47354  53.0537 105.2676 0002103  55.2347 304.8840 15.06412133 75417","EPHEMERIS_TYPE":"0","APOAPSIS":"548.633","OBJECT_TYPE":"PAYLOAD","PERIAPSIS":"545.720","SITE":"AFETR"},{"RCS_SIZE":"LARGE","REF_FRAME":"TEME","DECAY_DATE":null,"REV_AT_EPOCH":"7557","MEAN_MOTION_DOT":"0.00001630","GP_ID":"204803658","FILE":"3469840","ARG_OF_PERICENTER":"58.5324","OBJECT_ID":"2021-005G","TIME_SYSTEM":"UTC","INCLINATION":"53.0517","SEMIMAJOR_AXIS":"6925.339","MEAN_ANOMALY":"301.5848","TLE_LINE2":"2 47355  53.0517  91.6662 0001868  58.5324 301.5848 15.06403118 75579","COUNTRY_CODE":"US","APOAPSIS":"548.498","EPHEMERIS_TYPE":"0","OBJECT_TYPE":"PAYLOAD","PERIAPSIS":"545.910","SITE":"AFETR","MEAN_ELEMENT_THEORY":"SGP4","BSTAR":"0.00012831000000","EPOCH":"2022-05-28T13:54:15.335424","ELEMENT_SET_NO":"999","CENTER_NAME":"EARTH","CLASSIFICATION_TYPE":"U","NORAD_CAT_ID":"47355","MEAN_MOTION":"15.06403118","TLE_LINE1":"1 47355U 21005G   22148.57934416  .00001630  00000-0  12831-3 0  9996","RA_OF_ASC_NODE":"91.6662","OBJECT_NAME":"STARLINK-2047","MEAN_MOTION_DDOT":"0.0000000000000","ECCENTRICITY":"0.00018680","PERIOD":"95.592","LAUNCH_DATE":"2021-01-20"},{"MEAN_ANOMALY":"297.9297","SEMIMAJOR_AXIS":"6925.331","OBJECT_ID":"2021-005H","TIME_SYSTEM":"UTC","INCLINATION":"53.0542","FILE":"3469840","ARG_OF_PERICENTER":"62.1890","GP_ID":"204803408","DECAY_DATE":null,"REV_AT_EPOCH":"7530","MEAN_MOTION_DOT":"0.00000455","RCS_SIZE":"LARGE","REF_FRAME":"TEME","LAUNCH_DATE":"2021-01-20","PERIOD":"95.592","RA_OF_ASC_NODE":"111.4638","TLE_LINE1":"1 47356U 21005H   22148.62541575  .00000455  00000-0  49466-4 0  9992","OBJECT_NAME":"STARLINK-2049","MEAN_MOTION_DDOT":"0.0000000000000","ECCENTRICITY":"0.00019550","MEAN_MOTION":"15.06405737","CENTER_NAME":"EARTH","CLASSIFICATION_TYPE":"U","NORAD_CAT_ID":"47356","BSTAR":"0.00004946600000","MEAN_ELEMENT_THEORY":"SGP4","ELEMENT_SET_NO":"999","EPOCH":"2022-05-28T15:00:35.920800","OBJECT_TYPE":"PAYLOAD","PERIAPSIS":"545.842","SITE":"AFETR","TLE_LINE2":"2 47356  53.0542 111.4638 0001955  62.1890 297.9297 15.06405737 75304","COUNTRY_CODE":"US","EPHEMERIS_TYPE":"0","APOAPSIS":"548.550"},{"OBJECT_NAME":"STARLINK-2050","MEAN_MOTION_DDOT":"0.0000000000000","ECCENTRICITY":"0.00018140","RA_OF_ASC_NODE":"141.1153","TLE_LINE1":"1 47357U 21005J   22148.70006365 -.00000119  00000-0  10935-4 0  9992","MEAN_MOTION":"15.06399053","LAUNCH_DATE":"2021-01-20","PERIOD":"95.592","SITE":"AFETR","PERIAPSIS":"545.960","OBJECT_TYPE":"PAYLOAD","EPHEMERIS_TYPE":"0","APOAPSIS":"548.473","TLE_LINE2":"2 47357  53.0550 141.1153 0001814  53.8848 306.2309 15.06399053 74894","COUNTRY_CODE":"US","NORAD_CAT_ID":"47357","CLASSIFICATION_TYPE":"U","CENTER_NAME":"EARTH","ELEMENT_SET_NO":"999","EPOCH":"2022-05-28T16:48:05.499360","BSTAR":"0.00001093500000","MEAN_ELEMENT_THEORY":"SGP4","SEMIMAJOR_AXIS":"6925.351","INCLINATION":"53.0550","TIME_SYSTEM":"UTC","OBJECT_ID":"2021-005J","MEAN_ANOMALY":"306.2309","REV_AT_EPOCH":"7489","MEAN_MOTION_DOT":"-0.00000119","DECAY_DATE":null,"RCS_SIZE":"LARGE","REF_FRAME":"TEME","ARG_OF_PERICENTER":"53.8848","FILE":"3469840","GP_ID":"204804660"}];
